{
  "type": "FeatureCollection",
  "features": [
    {
      "type": "Feature",
      "properties": {
        "norad_id": 34478,
        "name": "COSMOS 2251 DEB",
        "group": "cosmos-2251-debris",
        "lat": 69.07599088635502,
        "lon": 56.97826121014649,
        "alt_km": 557.1655632564116,
        "timestamp": "2025-12-11T22:43:47.665119+00:00",
        "meta_object_name": "COSMOS 2251 DEB",
        "meta_object_id": "1993-036TX",
        "meta_epoch": "2025-12-11T11:46:55.176096",
        "meta_mean_motion": 15.07856824,
        "meta_eccentricity": 0.00351354,
        "meta_inclination": 74.04,
        "meta_ra_of_asc_node": 9.4547,
        "meta_arg_of_pericenter": 230.7222,
        "meta_mean_anomaly": 250.6058,
        "meta_ephemeris_type": 0,
        "meta_classification_type": "U",
        "meta_norad_cat_id": 34478,
        "meta_element_set_no": 999,
        "meta_rev_at_epoch": 88954,
        "meta_bstar": 0.0051061651,
        "meta_mean_motion_dot": 0.00080225,
        "meta_mean_motion_ddot": 0,
        "tle_line1": "1 34478U 93036TX  25345.49091639  .00080225  00000+0  51062-2 0  9999",
        "tle_line2": "2 34478  74.0400   9.4547 0035135 230.7222 250.6058 15.07856824889543"
      },
      "geometry": {
        "type": "Point",
        "coordinates": [
          56.97826121014649,
          69.07599088635502
        ]
      }
    },
    {
      "type": "Feature",
      "properties": {
        "norad_id": 34481,
        "name": "COSMOS 2251 DEB",
        "group": "cosmos-2251-debris",
        "lat": -62.103506099411646,
        "lon": -92.22350526274344,
        "alt_km": 741.6690985815931,
        "timestamp": "2025-12-11T22:43:47.665129+00:00",
        "meta_object_name": "COSMOS 2251 DEB",
        "meta_object_id": "1993-036UA",
        "meta_epoch": "2025-12-11T15:35:11.508864",
        "meta_mean_motion": 14.32544739,
        "meta_eccentricity": 0.00707512,
        "meta_inclination": 73.9804,
        "meta_ra_of_asc_node": 55.4541,
        "meta_arg_of_pericenter": 230.0025,
        "meta_mean_anomaly": 282.1972,
        "meta_ephemeris_type": 0,
        "meta_classification_type": "U",
        "meta_norad_cat_id": 34481,
        "meta_element_set_no": 999,
        "meta_rev_at_epoch": 87433,
        "meta_bstar": 0.0011107531,
        "meta_mean_motion_dot": 3.072e-05,
        "meta_mean_motion_ddot": 0,
        "tle_line1": "1 34481U 93036UA  25345.64943876  .00003072  00000+0  11108-2 0  9991",
        "tle_line2": "2 34481  73.9804  55.4541 0070751 230.0025 282.1972 14.32544739874337"
      },
      "geometry": {
        "type": "Point",
        "coordinates": [
          -92.22350526274344,
          -62.103506099411646
        ]
      }
    },
    {
      "type": "Feature",
      "properties": {
        "norad_id": 34482,
        "name": "COSMOS 2251 DEB",
        "group": "cosmos-2251-debris",
        "lat": -44.97068835770947,
        "lon": -151.48759996278278,
        "alt_km": 641.9580128646476,
        "timestamp": "2025-12-11T22:43:47.665139+00:00",
        "meta_object_name": "COSMOS 2251 DEB",
        "meta_object_id": "1993-036UB",
        "meta_epoch": "2025-12-11T02:23:14.699616",
        "meta_mean_motion": 14.69125321,
        "meta_eccentricity": 0.00451191,
        "meta_inclination": 74.0368,
        "meta_ra_of_asc_node": 226.7683,
        "meta_arg_of_pericenter": 287.0577,
        "meta_mean_anomaly": 224.4358,
        "meta_ephemeris_type": 0,
        "meta_classification_type": "U",
        "meta_norad_cat_id": 34482,
        "meta_element_set_no": 999,
        "meta_rev_at_epoch": 88163,
        "meta_bstar": 0.0028405288,
        "meta_mean_motion_dot": 0.00016972,
        "meta_mean_motion_ddot": 0,
        "tle_line1": "1 34482U 93036UB  25345.09947569  .00016972  00000+0  28405-2 0  9995",
        "tle_line2": "2 34482  74.0368 226.7683 0045119 287.0577 224.4358 14.69125321881639"
      },
      "geometry": {
        "type": "Point",
        "coordinates": [
          -151.48759996278278,
          -44.97068835770947
        ]
      }
    },
    {
      "type": "Feature",
      "properties": {
        "norad_id": 34544,
        "name": "COSMOS 2251 DEB",
        "group": "cosmos-2251-debris",
        "lat": 18.692732351710426,
        "lon": 19.7108520674432,
        "alt_km": 963.7995805625887,
        "timestamp": "2025-12-11T22:43:47.665150+00:00",
        "meta_object_name": "COSMOS 2251 DEB",
        "meta_object_id": "1993-036UE",
        "meta_epoch": "2025-12-10T23:12:13.179744",
        "meta_mean_motion": 13.54661255,
        "meta_eccentricity": 0.0384245,
        "meta_inclination": 73.9145,
        "meta_ra_of_asc_node": 206.8996,
        "meta_arg_of_pericenter": 235.6686,
        "meta_mean_anomaly": 190.1829,
        "meta_ephemeris_type": 0,
        "meta_classification_type": "U",
        "meta_norad_cat_id": 34544,
        "meta_element_set_no": 999,
        "meta_rev_at_epoch": 82858,
        "meta_bstar": 0.00034892,
        "meta_mean_motion_dot": 3.59e-06,
        "meta_mean_motion_ddot": 0,
        "tle_line1": "1 34544U 93036UE  25344.96681921  .00000359  00000+0  34892-3 0  9996",
        "tle_line2": "2 34544  73.9145 206.8996 0384245 235.6686 190.1829 13.54661255828582"
      },
      "geometry": {
        "type": "Point",
        "coordinates": [
          19.7108520674432,
          18.692732351710426
        ]
      }
    },
    {
      "type": "Feature",
      "properties": {
        "norad_id": 34546,
        "name": "COSMOS 2251 DEB",
        "group": "cosmos-2251-debris",
        "lat": -33.539855357862,
        "lon": 81.60614668842283,
        "alt_km": 751.6542003671047,
        "timestamp": "2025-12-11T22:43:47.665160+00:00",
        "meta_object_name": "COSMOS 2251 DEB",
        "meta_object_id": "1993-036UG",
        "meta_epoch": "2025-12-11T12:35:23.262720",
        "meta_mean_motion": 14.45404934,
        "meta_eccentricity": 0.00219154,
        "meta_inclination": 74.031,
        "meta_ra_of_asc_node": 251.4516,
        "meta_arg_of_pericenter": 325.2837,
        "meta_mean_anomaly": 212.337,
        "meta_ephemeris_type": 0,
        "meta_classification_type": "U",
        "meta_norad_cat_id": 34546,
        "meta_element_set_no": 999,
        "meta_rev_at_epoch": 88008,
        "meta_bstar": 0.0011776031,
        "meta_mean_motion_dot": 4.131e-05,
        "meta_mean_motion_ddot": 0,
        "tle_line1": "1 34546U 93036UG  25345.52457480  .00004131  00000+0  11776-2 0  9999",
        "tle_line2": "2 34546  74.0310 251.4516 0021915 325.2837 212.3370 14.45404934880081"
      },
      "geometry": {
        "type": "Point",
        "coordinates": [
          81.60614668842283,
          -33.539855357862
        ]
      }
    },
    {
      "type": "Feature",
      "properties": {
        "norad_id": 34547,
        "name": "COSMOS 2251 DEB",
        "group": "cosmos-2251-debris",
        "lat": -31.515303019982216,
        "lon": 92.15442083683561,
        "alt_km": 669.6336675692937,
        "timestamp": "2025-12-11T22:43:47.665171+00:00",
        "meta_object_name": "COSMOS 2251 DEB",
        "meta_object_id": "1993-036UH",
        "meta_epoch": "2025-12-11T14:43:32.841120",
        "meta_mean_motion": 14.72298648,
        "meta_eccentricity": 0.00175909,
        "meta_inclination": 74.0303,
        "meta_ra_of_asc_node": 102.9163,
        "meta_arg_of_pericenter": 182.0571,
        "meta_mean_anomaly": 178.0532,
        "meta_ephemeris_type": 0,
        "meta_classification_type": "U",
        "meta_norad_cat_id": 34547,
        "meta_element_set_no": 999,
        "meta_rev_at_epoch": 88505,
        "meta_bstar": 0.003400892,
        "meta_mean_motion_dot": 0.00021587,
        "meta_mean_motion_ddot": 0,
        "tle_line1": "1 34547U 93036UH  25345.61357455  .00021587  00000+0  34009-2 0  9999",
        "tle_line2": "2 34547  74.0303 102.9163 0017590 182.0571 178.0532 14.72298648885053"
      },
      "geometry": {
        "type": "Point",
        "coordinates": [
          92.15442083683561,
          -31.515303019982216
        ]
      }
    },
    {
      "type": "Feature",
      "properties": {
        "norad_id": 34553,
        "name": "COSMOS 2251 DEB",
        "group": "cosmos-2251-debris",
        "lat": -73.31389239800741,
        "lon": 86.28071389321575,
        "alt_km": 693.8796661794568,
        "timestamp": "2025-12-11T22:43:47.665181+00:00",
        "meta_object_name": "COSMOS 2251 DEB",
        "meta_object_id": "1993-036UP",
        "meta_epoch": "2025-12-11T00:47:41.290656",
        "meta_mean_motion": 14.57695611,
        "meta_eccentricity": 0.00193834,
        "meta_inclination": 74.0246,
        "meta_ra_of_asc_node": 195.1379,
        "meta_arg_of_pericenter": 272.6509,
        "meta_mean_anomaly": 238.2498,
        "meta_ephemeris_type": 0,
        "meta_classification_type": "U",
        "meta_norad_cat_id": 34553,
        "meta_element_set_no": 999,
        "meta_rev_at_epoch": 88071,
        "meta_bstar": 0.0015950679,
        "meta_mean_motion_dot": 7.277e-05,
        "meta_mean_motion_ddot": 0,
        "tle_line1": "1 34553U 93036UP  25345.03311679  .00007277  00000+0  15951-2 0  9995",
        "tle_line2": "2 34553  74.0246 195.1379 0019383 272.6509 238.2498 14.57695611880710"
      },
      "geometry": {
        "type": "Point",
        "coordinates": [
          86.28071389321575,
          -73.31389239800741
        ]
      }
    }
  ]
}